ONEWEB-0202             
1 48224U 21031Q   23353.37895631 -.00000008  00000+0 -55605-4 0  9999
2 48224  87.8967 111.0159 0002553 117.9621 242.1767 13.14505404128701
ONEWEB-0204             
1 48225U 21031R   23353.33693687  .00000249  00000+0  63761-3 0  9999
2 48225  87.8972 111.0371 0001355  91.0248 269.1037 13.14502448128591
ONEWEB-0205             
1 48226U 21031S   23353.84517376  .00000105  00000+0  24761-3 0  9994
2 48226  87.8972 110.9050 0001838 102.1345 257.9990 13.14503240128686
ONEWEB-0206             
1 48227U 21031T   23353.81820711 -.00000224  00000+0 -63972-3 0  9993
2 48227  87.8977 110.9020 0001815 101.9057 258.2276 13.14503767128631
ONEWEB-0182             
1 48228U 21031U   23353.35676472  .00000249  00000+0  63791-3 0  9990
2 48228  87.8975 111.0159 0001380 101.1996 258.9289 13.14503780128777
ONEWEB-0186             
1 48229U 21031V   23353.36786253 -.00000162  00000+0 -47022-3 0  9996
2 48229  87.8982 110.9765 0001758 110.1395 249.9924 13.14503450128724
ONEWEB-0181             
1 48230U 21031W   23353.34563966  .00000094  00000+0  21831-3 0  9992
2 48230  87.8975 111.0528 0001831 110.3895 249.7431 13.14502272128571
ONEWEB-0188             
1 48231U 21031X   23353.38370812  .00000126  00000+0  30410-3 0  9992
2 48231  87.8970 111.0430 0001670 103.2712 256.8604 13.14503135128489
